[{"OBJECT_NAME":"STARLINK-2383","OBJECT_ID":"2021-018R","EPOCH":"2026-03-09T17:59:04.647840","MEAN_MOTION":15.29365657,"ECCENTRICITY":0.0001466,"INCLINATION":53.1561,"RA_OF_ASC_NODE":254.8518,"ARG_OF_PERICENTER":128.9054,"MEAN_ANOMALY":231.2078,"EPHEMERIS_TYPE":0,"CLASSIFICATION_TYPE":"U","NORAD_CAT_ID":47802,"ELEMENT_SET_NO":999,"REV_AT_EPOCH":27656,"BSTAR":2.0905209e-5,"MEAN_MOTION_DOT":2.47e-6,"MEAN_MOTION_DDOT":0},{"OBJECT_NAME":"TSAT-1A","OBJECT_ID":"2024-066A","EPOCH":"2026-03-09T22:56:57.116832","MEAN_MOTION":15.33219384,"ECCENTRICITY":0.00111833,"INCLINATION":45.6179,"RA_OF_ASC_NODE":302.0275,"ARG_OF_PERICENTER":264.5913,"MEAN_ANOMALY":95.3706,"EPHEMERIS_TYPE":0,"CLASSIFICATION_TYPE":"U","NORAD_CAT_ID":59442,"ELEMENT_SET_NO":999,"REV_AT_EPOCH":10653,"BSTAR":0.00047082724,"MEAN_MOTION_DOT":0.00015138,"MEAN_MOTION_DDOT":0}]
